INTELSAT 902 (IS-902)   
1 26900U 01039A   26188.49142751 -.00000272  00000+0  00000+0 0  9998
2 26900   6.1673  71.5349 0004415  31.4521 309.2722  1.00272462 90896
INTELSAT 904 (IS-904)   
1 27380U 02007A   26188.80535625 -.00000215  00000+0  00000+0 0  9995
2 27380   6.9682  68.9346 0005630  20.7085  94.5779  1.00272869 51973
DIRECTV 5 (TEMPO 1)     
1 27426U 02023A   26188.69356815 -.00000045  00000+0  00000+0 0  9994
2 27426   4.9268  75.0554 0003131  34.0074 316.1754  1.00271084 88325
INTELSAT 905 (IS-905)   
1 27438U 02027A   26188.60018913  .00000104  00000+0  00000+0 0  9991
2 27438   6.8014  69.5516 0003701  41.3362 253.5448  1.00272047 51568
GALAXY 3C (G-3C)        
1 27445U 02030A   26188.55643932 -.00000140  00000+0  00000+0 0  9993
2 27445   3.7826  77.7134 0001672  35.9642 277.3401  1.00271292 46697
INTELSAT 906 (IS-906)   
1 27513U 02041A   26188.72806308  .00000024  00000+0  00000+0 0  9998
2 27513   5.8533  72.6687 0004010  15.8344 163.4176  1.00271622 87239
GALAXY 13 (HORIZONS-1)  
1 27954U 03044A   26188.68568145  .00000147  00000+0  00000+0 0  9996
2 27954   1.4711  83.6027 0001751  23.0577 275.8370  1.00274572 46771
INTELSAT 10-02          
1 28358U 04022A   26188.71514824  .00000003  00000+0  00000+0 0  9992
2 28358   0.0454 259.4222 0000540 290.6114 352.0949  1.00267511 80765
DIRECTV 8               
1 28659U 05019A   26188.62048116  .00000016  00000+0  00000+0 0  9993
2 28659   0.0190  47.3574 0003149  71.9739 270.5791  1.00271844 77276
GALAXY 28 (G-28)        
1 28702U 05022A   26188.70994823 -.00000187  00000+0  00000+0 0  9990
2 28702   3.3482  78.6868 0002228  29.0096  46.4624  1.00271522 52186
GALAXY 16 (G-16)        
1 29236U 06023A   26188.62446785 -.00000111  00000+0  00000+0 0  9992
2 29236   0.0308 131.3230 0002501 339.9613 300.1080  1.00270682 73176
DIRECTV 9S              
1 29494U 06043A   26188.62403450 -.00000100  00000+0  00000+0 0  9990
2 29494   2.4702  80.6605 0005149  29.2037 299.1794  1.00271141 51589
GALAXY 17 (G-17)        
1 31307U 07016B   26188.62724118 -.00000193  00000+0  00000+0 0  9996
2 31307   3.0200  79.6457 0003710  26.8003 319.9301  1.00272146 70005
INTELSAT 11 (IS-11)     
1 32253U 07044B   26188.72242975  .00000036  00000+0  00000+0 0  9990
2 32253   3.6155  78.4234 0003835  96.1145  46.6580  0.99049533 68656
HORIZONS-2              
1 32388U 07063B   26188.55799138 -.00000240  00000+0  00000+0 0  9997
2 32388   2.6513  80.3804 0003784  13.9296 318.2991  1.00272137 68019
DIRECTV 11              
1 32729U 08013A   26188.62438117 -.00000110  00000+0  00000+0 0  9993
2 32729   0.0374 206.3511 0000158 255.2106 309.6178  1.00270759 45792
GALAXY 18 (G-18)        
1 32951U 08024A   26189.04742553  .00000040  00000+0  00000+0 0  9992
2 32951   0.0160 336.4341 0002910 141.0127  62.6404  1.00272856 46060
GALAXY 19 (G-19)        
1 33376U 08045A   26188.62481450 -.00000124  00000+0  00000+0 0  9990
2 33376   0.0577 253.8618 0002810 236.1509 283.5017  1.00271643 65105
FM-5                    
1 35493U 09034A   26189.19575880 -.00000185  00000+0  00000+0 0  9992
2 35493   0.0393 268.9657 0000984  67.4787 294.0140  1.00269649 46854
INTELSAT 14 (IS-14)     
1 36097U 09064A   26189.16294722 -.00000258  00000+0  00000+0 0  9997
2 36097   0.0056  43.6992 0002270  72.9867 183.1074  1.00270663 60815
INTELSAT 15 (IS-15)     
1 36106U 09067A   26189.08868889 -.00000170  00000+0  00000+0 0  9996
2 36106   0.0178  28.4079 0002233  84.3689 290.3489  1.00271052 41437
DIRECTV 12              
1 36131U 09075A   26188.62368785 -.00000088  00000+0  00000+0 0  9990
2 36131   0.0370 181.4659 0000279 336.4988 249.4222  1.00271960 46752
INTELSAT 16 (IS-16)     
1 36397U 10006A   26189.19735014 -.00000229  00000+0  00000+0 0  9993
2 36397   0.0118 327.1992 0002449 163.2959 150.4960  1.00269402 59864
XM-5                    
1 37185U 10053A   26189.12027409 -.00000008  00000+0  00000+0 0  9991
2 37185   0.0632 268.3489 0001811 309.4674 356.3634  1.00270800 57696
INTELSAT 17 (IS-17)     
1 37238U 10065B   26189.15616764  .00000013  00000+0  00000+0 0  9999
2 37238   0.0103  79.1586 0002613  33.4690 295.6964  1.00272689 53455
INTELSAT 28 (IS-28)     
1 37392U 11016A   26188.70908155 -.00000211  00000+0  00000+0 0  9996
2 37392   1.8560  82.3740 0003787  33.1272  33.7045  1.00273260 53497
INTELSAT 18 (IS-18)     
1 37834U 11056A   26189.10740897  .00000068  00000+0  00000+0 0  9992
2 37834   0.0171 346.8462 0001822 132.2193  25.6566  1.00271618 54020
INTELSAT 22 (IS-22)     
1 38098U 12011A   26189.19955696  .00000000  00000+0  00000+0 0  9997
2 38098   0.0292  59.1866 0001867  74.3080 296.5795  1.00269460  7392
INTELSAT 19 (IS-19)     
1 38356U 12030A   26189.10454897 -.00000041  00000+0  00000+0 0  9999
2 38356   0.0011 354.3924 0003163 125.6998   9.6089  1.00271632 50663
INTELSAT 20 (IS-20)     
1 38740U 12043A   26189.20303228 -.00000010  00000+0  00000+0 0  9998
2 38740   0.0094  48.7876 0001172 134.7906 244.1617  1.00272878 50957
INTELSAT 21 (IS-21)     
1 38749U 12045A   26189.13414714 -.00000270  00000+0  00000+0 0  9992
2 38749   0.0174 349.6483 0001764 139.7386 146.9946  1.00269849 50730
INTELSAT 23 (IS-23)     
1 38867U 12057A   26189.14979288 -.00000270  00000+0  00000+0 0  9999
2 38867   0.0121  27.1998 0000342 180.3322  79.5066  1.00270471 50169
FM-6                    
1 39360U 13058A   26189.12001409  .00000000  00000+0  00000+0 0  9999
2 39360   0.0444  68.3523 0002952 116.1872  28.4121  1.00270922 46287
INTELSAT 30 (IS-30)     
1 40271U 14062A   26189.03346980 -.00000136  00000+0  00000+0 0  9995
2 40271   0.0173  47.8504 0001310 342.3909 172.7537  1.00270031  7003
DIRECTV 14              
1 40333U 14078B   26188.90956477 -.00000110  00000+0  00000+0 0  9996
2 40333   0.0108  36.7296 0000289 299.4548 177.8898  1.00272351 42259
DIRECTV 15              
1 40663U 15026A   26188.90887145 -.00000087  00000+0  00000+0 0  9994
2 40663   0.0158  68.2504 0000398 269.1364 172.8114  1.00272144 40673
SKY MEXICO-1            
1 40664U 15026B   26189.17449328 -.00000219  00000+0  00000+0 0  9999
2 40664   0.0128 313.6109 0002453 175.1743 141.3678  1.00270407 40665
INTELSAT 34 (IS-34)     
1 40874U 15039A   26189.15526132 -.00000270  00000+0  00000+0 0  9990
2 40874   0.0102 339.4642 0000296  26.1461 280.9077  1.00270368 39840
INTELSAT 31 (IS-31)     
1 41581U 16035A   26189.18223644 -.00000136  00000+0  00000+0 0  9999
2 41581   0.0347 238.5086 0001013  48.3346 329.8548  1.00270297 36893
INTELSAT 36 (IS-36)     
1 41747U 16053A   26188.80017597 -.00000012  00000+0  00000+0 0  9992
2 41747   0.0091  10.2892 0000975  27.8198 244.1989  1.00285795 36163
INTELSAT 32E (IS-32E)   
1 41945U 17007B   26189.16294722 -.00000254  00000+0  00000+0 0  9997
2 41945   0.0175 348.6104 0000713 349.2928 323.7010  1.00269199 34439
INTELSAT 35E (IS-35E)   
1 42818U 17041A   26189.15738958  .00000000  00000+0  00000+0 0  9996
2 42818   0.0221  25.1444 0001600  82.6985 200.4455  1.00269689 33024
INTELSAT 37E (IS-37E)   
1 42950U 17059A   26189.18586491  .00000000  00000+0  00000+0 0  9998
2 42950   0.0251  38.8294 0002484  76.5878 219.6420  1.00269886 32271
AZERSPACE 2 (IS-38)     
1 43632U 18074A   26189.15200762  .00000000  00000+0  00000+0 0  9995
2 43632   0.0236  30.1301 0001205  90.4477 265.3640  1.00271124 28653
HORIZONS-3E             
1 43633U 18074B   26188.89136470 -.00000016  00000+0  00000+0 0  9998
2 43633   0.0461 215.8693 0000895  83.2563 116.6260  1.00267153 28541
AT&T T-16               
1 44333U 19034A   26188.62412117 -.00000100  00000+0  00000+0 0  9993
2 44333   0.0146  66.9323 0000472 242.0117 100.4644  1.00268804 25835
INTELSAT 39 (IS-39)     
1 44476U 19049B   26189.15538763  .00000000  00000+0  00000+0 0  9990
2 44476   0.0225  26.0776 0000850 295.0726  82.8492  1.00269623 25333
GALAXY 30 (G-30)        
1 46114U 20056C   26189.04707888  .00000052  00000+0  00000+0 0  9992
2 46114   0.0173  47.4015 0002100  60.4134  70.1440  1.00270654 21500
GALAXY 33 (G-33)        
1 54026U 22128A   26189.13711603  .00000094  00000+0  00000+0 0  9991
2 54026   0.0113 326.4124 0001745 141.2319  94.8236  1.00273249 13952
GALAXY 34 (G-34)        
1 54027U 22128B   26189.11907909  .00000000  00000+0  00000+0 0  9993
2 54027   0.0190  23.8702 0001497 100.2788  75.8054  1.00268793 14122
GALAXY 31 (G-31)        
1 54243U 22153A   26189.04785888  .00000000  00000+0  00000+0 0  9993
2 54243   0.0129  15.7307 0001146  96.9563  69.5508  1.00271653  7347
GALAXY 32 (G-32)        
1 54244U 22153B   26189.05379131 -.00000159  00000+0  00000+0 0  9991
2 54244   0.0092  34.7114 0001541  14.1883 165.4788  1.00270511 13356
GALAXY 35 (G-35)        
1 54741U 22170A   26188.62559450 -.00000147  00000+0  00000+0 0  9995
2 54741   0.0237  90.2369 0002057  19.6523 307.8160  1.00271515 13094
GALAXY 36 (G-36)        
1 54742U 22170B   26188.62646118 -.00000170  00000+0  00000+0 0  9990
2 54742   0.0243 132.4340 0002639 325.8640 323.8193  1.00270868 12978
GALAXY 37 (G-37)        
1 57493U 23112A   26188.69018814  .00000063  00000+0  00000+0 0  9996
2 57493   0.0190  36.5793 0001845  77.8615 292.6849  1.00272376 10745
